{
  "norad_id": 22195,
  "name": "LAGEOS 2",
  "history": [
    {
      "epoch": "2026-03-20T02:10:27.910848Z",
      "apogee_km": 5951.238478173714,
      "perigee_km": 5616.265995304061,
      "latitude_deg": 21.458343491096322,
      "longitude_deg": -84.65389538638726,
      "height_km": 5617.084443196649,
      "semi_major_axis_km": 12161.889236738887,
      "eccentricity": 0.0137714,
      "inclination_deg": 52.6746,
      "raan_deg": 322.9737,
      "arg_perigee_deg": 148.3602,
      "mean_anomaly_deg": 4.1736,
      "mean_motion_rev_day": 6.47293426
    }
  ]
}